{
  "norad_id": 67629,
  "name": "STARLINK-36367",
  "history": [
    {
      "epoch": "2026-03-28T05:51:04.866912Z",
      "apogee_km": 481.4394725771126,
      "perigee_km": 479.6863888748194,
      "latitude_deg": -4.3252981183989714e-05,
      "longitude_deg": 121.34213292349708,
      "height_km": 480.64327810386595,
      "semi_major_axis_km": 6858.699930725966,
      "eccentricity": 0.0001278,
      "inclination_deg": 43.0032,
      "raan_deg": 34.7795,
      "arg_perigee_deg": 249.7366,
      "mean_anomaly_deg": 110.3348,
      "mean_motion_rev_day": 15.28410659
    }
  ]
}